CCSDS_OMM_VERS = 2.0
CREATION_DATE  = 
ORIGINATOR     = 

OBJECT_NAME    = STARLINK-36579
OBJECT_ID      = 2026-014K
CENTER_NAME    = EARTH
REF_FRAME      = TEME
TIME_SYSTEM    = UTC
MEAN_ELEMENT_THEORY = SGP/SGP4

EPOCH          = 2026-02-08T19:15:14.598720
MEAN_MOTION    = 15.78255391
ECCENTRICITY   = .000199
INCLINATION    = 97.2840
RA_OF_ASC_NODE = 283.2746
ARG_OF_PERICENTER = 325.3497
MEAN_ANOMALY   = 34.7640

EPHEMERIS_TYPE = 0
CLASSIFICATION_TYPE = U
NORAD_CAT_ID   = 67541
ELEMENT_SET_NO = 999
REV_AT_EPOCH   = 402
BSTAR          = -.4807E-2
MEAN_MOTION_DOT = -.752816E-2
MEAN_MOTION_DDOT = 0

CCSDS_OMM_VERS = 2.0
CREATION_DATE  = 
ORIGINATOR     = 

OBJECT_NAME    = STARLINK-35934
OBJECT_ID      = 2026-014L
CENTER_NAME    = EARTH
REF_FRAME      = TEME
TIME_SYSTEM    = UTC
MEAN_ELEMENT_THEORY = SGP/SGP4

EPOCH          = 2026-02-08T19:12:12.116736
MEAN_MOTION    = 15.80883140
ECCENTRICITY   = .0001481
INCLINATION    = 97.2849
RA_OF_ASC_NODE = 283.2766
ARG_OF_PERICENTER = 96.5693
MEAN_ANOMALY   = 263.5744

EPHEMERIS_TYPE = 0
CLASSIFICATION_TYPE = U
NORAD_CAT_ID   = 67542
ELEMENT_SET_NO = 999
REV_AT_EPOCH   = 401
BSTAR          = .73805E-3
MEAN_MOTION_DOT = .144029E-2
MEAN_MOTION_DDOT = 0

CCSDS_OMM_VERS = 2.0
CREATION_DATE  = 
ORIGINATOR     = 

OBJECT_NAME    = STARLINK-36581
OBJECT_ID      = 2026-014M
CENTER_NAME    = EARTH
REF_FRAME      = TEME
TIME_SYSTEM    = UTC
MEAN_ELEMENT_THEORY = SGP/SGP4

EPOCH          = 2026-02-08T19:10:28.962048
MEAN_MOTION    = 15.80901262
ECCENTRICITY   = .0001522
INCLINATION    = 97.2848
RA_OF_ASC_NODE = 283.2770
ARG_OF_PERICENTER = 106.6350
MEAN_ANOMALY   = 253.5086

EPHEMERIS_TYPE = 0
CLASSIFICATION_TYPE = U
NORAD_CAT_ID   = 67543
ELEMENT_SET_NO = 999
REV_AT_EPOCH   = 402
BSTAR          = .1082E-2
MEAN_MOTION_DOT = .213083E-2
MEAN_MOTION_DDOT = 0

CCSDS_OMM_VERS = 2.0
CREATION_DATE  = 
ORIGINATOR     = 

OBJECT_NAME    = STARLINK-36565
OBJECT_ID      = 2026-014N
CENTER_NAME    = EARTH
REF_FRAME      = TEME
TIME_SYSTEM    = UTC
MEAN_ELEMENT_THEORY = SGP/SGP4

EPOCH          = 2026-02-08T19:08:57.888672
MEAN_MOTION    = 15.80902868
ECCENTRICITY   = .0001343
INCLINATION    = 97.2851
RA_OF_ASC_NODE = 283.2787
ARG_OF_PERICENTER = 88.8975
MEAN_ANOMALY   = 271.2447

EPHEMERIS_TYPE = 0
CLASSIFICATION_TYPE = U
NORAD_CAT_ID   = 67544
ELEMENT_SET_NO = 999
REV_AT_EPOCH   = 402
BSTAR          = .65336E-3
MEAN_MOTION_DOT = .127355E-2
MEAN_MOTION_DDOT = 0

CCSDS_OMM_VERS = 2.0
CREATION_DATE  = 
ORIGINATOR     = 

OBJECT_NAME    = STARLINK-36583
OBJECT_ID      = 2026-014P
CENTER_NAME    = EARTH
REF_FRAME      = TEME
TIME_SYSTEM    = UTC
MEAN_ELEMENT_THEORY = SGP/SGP4

EPOCH          = 2026-02-08T20:00:01.999008
MEAN_MOTION    = 15.75191957
ECCENTRICITY   = .0001335
INCLINATION    = 97.2860
RA_OF_ASC_NODE = 283.2965
ARG_OF_PERICENTER = 95.4063
MEAN_ANOMALY   = 61.8363

EPHEMERIS_TYPE = 0
CLASSIFICATION_TYPE = U
NORAD_CAT_ID   = 67545
ELEMENT_SET_NO = 999
REV_AT_EPOCH   = 405
BSTAR          = -.18297E-3
MEAN_MOTION_DOT = -.27336E-3
MEAN_MOTION_DDOT = 0

CCSDS_OMM_VERS = 2.0
CREATION_DATE  = 
ORIGINATOR     = 

OBJECT_NAME    = STARLINK-36580
OBJECT_ID      = 2026-014Q
CENTER_NAME    = EARTH
REF_FRAME      = TEME
TIME_SYSTEM    = UTC
MEAN_ELEMENT_THEORY = SGP/SGP4

EPOCH          = 2026-02-08T02:22:44.854464
MEAN_MOTION    = 15.80937635
ECCENTRICITY   = .00013355
INCLINATION    = 97.2779
RA_OF_ASC_NODE = 282.5415
ARG_OF_PERICENTER = 33.0263
MEAN_ANOMALY   = 327.1088

EPHEMERIS_TYPE = 0
CLASSIFICATION_TYPE = U
NORAD_CAT_ID   = 67546
ELEMENT_SET_NO = 999
REV_AT_EPOCH   = 391
BSTAR          = .17113076E-2
MEAN_MOTION_DOT = .342766E-2
MEAN_MOTION_DDOT = 0

CCSDS_OMM_VERS = 2.0
CREATION_DATE  = 
ORIGINATOR     = 

OBJECT_NAME    = STARLINK-36584
OBJECT_ID      = 2026-014R
CENTER_NAME    = EARTH
REF_FRAME      = TEME
TIME_SYSTEM    = UTC
MEAN_ELEMENT_THEORY = SGP/SGP4

EPOCH          = 2026-02-08T19:04:03.742464
MEAN_MOTION    = 15.80867928
ECCENTRICITY   = .0001473
INCLINATION    = 97.2766
RA_OF_ASC_NODE = 283.2785
ARG_OF_PERICENTER = 101.5899
MEAN_ANOMALY   = 258.5535

EPHEMERIS_TYPE = 0
CLASSIFICATION_TYPE = U
NORAD_CAT_ID   = 67547
ELEMENT_SET_NO = 999
REV_AT_EPOCH   = 402
BSTAR          = .64611E-3
MEAN_MOTION_DOT = .125715E-2
MEAN_MOTION_DDOT = 0

CCSDS_OMM_VERS = 2.0
CREATION_DATE  = 
ORIGINATOR     = 

OBJECT_NAME    = STARLINK-36586
OBJECT_ID      = 2026-014S
CENTER_NAME    = EARTH
REF_FRAME      = TEME
TIME_SYSTEM    = UTC
MEAN_ELEMENT_THEORY = SGP/SGP4

EPOCH          = 2026-02-08T19:02:05.732160
MEAN_MOTION    = 15.80857182
ECCENTRICITY   = .0001472
INCLINATION    = 97.2855
RA_OF_ASC_NODE = 283.2859
ARG_OF_PERICENTER = 99.9590
MEAN_ANOMALY   = 260.1844

EPHEMERIS_TYPE = 0
CLASSIFICATION_TYPE = U
NORAD_CAT_ID   = 67548
ELEMENT_SET_NO = 999
REV_AT_EPOCH   = 402
BSTAR          = .53127E-3
MEAN_MOTION_DOT = .103025E-2
MEAN_MOTION_DDOT = 0

CCSDS_OMM_VERS = 2.0
CREATION_DATE  = 
ORIGINATOR     = 

OBJECT_NAME    = STARLINK-36564
OBJECT_ID      = 2026-014T
CENTER_NAME    = EARTH
REF_FRAME      = TEME
TIME_SYSTEM    = UTC
MEAN_ELEMENT_THEORY = SGP/SGP4

EPOCH          = 2026-02-08T20:00:01.999008
MEAN_MOTION    = 15.75218682
ECCENTRICITY   = .0001679
INCLINATION    = 97.2850
RA_OF_ASC_NODE = 283.3219
ARG_OF_PERICENTER = 103.1660
MEAN_ANOMALY   = 110.0671

EPHEMERIS_TYPE = 0
CLASSIFICATION_TYPE = U
NORAD_CAT_ID   = 67549
ELEMENT_SET_NO = 999
REV_AT_EPOCH   = 399
BSTAR          = -.47817E-3
MEAN_MOTION_DOT = -.70954E-3
MEAN_MOTION_DDOT = 0

CCSDS_OMM_VERS = 2.0
CREATION_DATE  = 
ORIGINATOR     = 

OBJECT_NAME    = STARLINK-36563
OBJECT_ID      = 2026-014U
CENTER_NAME    = EARTH
REF_FRAME      = TEME
TIME_SYSTEM    = UTC
MEAN_ELEMENT_THEORY = SGP/SGP4

EPOCH          = 2026-02-08T20:00:01.999008
MEAN_MOTION    = 15.76911599
ECCENTRICITY   = .0001903
INCLINATION    = 97.2852
RA_OF_ASC_NODE = 283.3299
ARG_OF_PERICENTER = 93.3510
MEAN_ANOMALY   = 142.6257

EPHEMERIS_TYPE = 0
CLASSIFICATION_TYPE = U
NORAD_CAT_ID   = 67550
ELEMENT_SET_NO = 999
REV_AT_EPOCH   = 405
BSTAR          = -.13377E-1
MEAN_MOTION_DOT = -.1879328E-1
MEAN_MOTION_DDOT = 0

CCSDS_OMM_VERS = 2.0
CREATION_DATE  = 
ORIGINATOR     = 

OBJECT_NAME    = STARLINK-36566
OBJECT_ID      = 2026-014V
CENTER_NAME    = EARTH
REF_FRAME      = TEME
TIME_SYSTEM    = UTC
MEAN_ELEMENT_THEORY = SGP/SGP4

EPOCH          = 2026-02-08T20:00:01.999008
MEAN_MOTION    = 15.78160967
ECCENTRICITY   = .0001742
INCLINATION    = 97.2849
RA_OF_ASC_NODE = 283.3341
ARG_OF_PERICENTER = 103.7764
MEAN_ANOMALY   = 141.7838

EPHEMERIS_TYPE = 0
CLASSIFICATION_TYPE = U
NORAD_CAT_ID   = 67551
ELEMENT_SET_NO = 999
REV_AT_EPOCH   = 405
BSTAR          = -.13397E-1
MEAN_MOTION_DOT = -.1975244E-1
MEAN_MOTION_DDOT = 0

CCSDS_OMM_VERS = 2.0
CREATION_DATE  = 
ORIGINATOR     = 

OBJECT_NAME    = STARLINK-36567
OBJECT_ID      = 2026-014W
CENTER_NAME    = EARTH
REF_FRAME      = TEME
TIME_SYSTEM    = UTC
MEAN_ELEMENT_THEORY = SGP/SGP4

EPOCH          = 2026-02-08T20:00:01.999008
MEAN_MOTION    = 15.75184682
ECCENTRICITY   = .000144
INCLINATION    = 97.2853
RA_OF_ASC_NODE = 283.3123
ARG_OF_PERICENTER = 94.9368
MEAN_ANOMALY   = 106.3006

EPHEMERIS_TYPE = 0
CLASSIFICATION_TYPE = U
NORAD_CAT_ID   = 67552
ELEMENT_SET_NO = 999
REV_AT_EPOCH   = 405
BSTAR          = .17195E-3
MEAN_MOTION_DOT = .25589E-3
MEAN_MOTION_DDOT = 0

