STARLINK-36579          
1 67541U 26014K   26039.80225230 -.00752816  00000+0 -48070-2 0  9999
2 67541  97.2840 283.2746 0001990 325.3497  34.7640 15.78255391  4025
STARLINK-35934          
1 67542U 26014L   26039.80014024  .00144029  00000+0  73805-3 0  9991
2 67542  97.2849 283.2766 0001481  96.5693 263.5744 15.80883140  4015
STARLINK-36581          
1 67543U 26014M   26039.79894632  .00213083  00000+0  10820-2 0  9995
2 67543  97.2848 283.2770 0001522 106.6350 253.5086 15.80901262  4024
STARLINK-36565          
1 67544U 26014N   26039.79789223  .00127355  00000+0  65336-3 0  9994
2 67544  97.2851 283.2787 0001343  88.8975 271.2447 15.80902868  4023
STARLINK-36583          
1 67545U 26014P   26039.83335647 -.00027336  00000+0 -18297-3 0  9991
2 67545  97.2860 283.2965 0001335  95.4063  61.8363 15.75191957  4051
STARLINK-36580          
1 67546U 26014Q   26039.09913026  .00342766  00000+0  17113-2 0  9993
2 67546  97.2779 282.5415 0001335  33.0263 327.1088 15.80937635  3916
STARLINK-36584          
1 67547U 26014R   26039.79448776  .00125715  00000+0  64611-3 0  9995
2 67547  97.2766 283.2785 0001473 101.5899 258.5535 15.80867928  4024
STARLINK-36586          
1 67548U 26014S   26039.79312190  .00103025  00000+0  53127-3 0  9996
2 67548  97.2855 283.2859 0001472  99.9590 260.1844 15.80857182  4026
STARLINK-36564          
1 67549U 26014T   26039.83335647 -.00070954  00000+0 -47817-3 0  9999
2 67549  97.2850 283.3219 0001679 103.1660 110.0671 15.75218682  3994
STARLINK-36563          
1 67550U 26014U   26039.83335647 -.01879328  00000+0 -13377-1 0  9996
2 67550  97.2852 283.3299 0001903  93.3510 142.6257 15.76911599  4057
STARLINK-36566          
1 67551U 26014V   26039.83335647 -.01975244  00000+0 -13397-1 0  9993
2 67551  97.2849 283.3341 0001742 103.7764 141.7838 15.78160967  4052
STARLINK-36567          
1 67552U 26014W   26039.83335647  .00025589  00000+0  17195-3 0  9991
2 67552  97.2853 283.3123 0001440  94.9368 106.3006 15.75184682  4053
